NORAD_CAT_ID,OBJECT_NAME,OBJECT_TYPE,EPOCH,MEAN_MOTION,ECCENTRICITY,INCLINATION,RA_OF_ASC_NODE,ARG_OF_PERICENTER,MEAN_ANOMALY,BSTAR,MEAN_MOTION_DOT,MEAN_MOTION_DDOT,TLE_LINE0,TLE_LINE1,TLE_LINE2,SEMIMAJOR_AXIS,PERIOD,APOGEE,PERIGEE,DECAYED
53600.0,STARLINK-4677,PAYLOAD,2023-04-05 22:33:22,15.08838543,0.0001635,53.2175,1.6619,116.1661,243.95,0.0010965,0.00017205,0.0,0 STARLINK-4677,1 53600U 22104N   23095.93983942  .00017205  00000-0  10965-2 0  9997,2 53600  53.2175   1.6619 0001635 116.1661 243.9500 15.08838543 33991,6917.885,95.438,540.881,538.619,0.0
53600.0,STARLINK-4677,PAYLOAD,2023-04-06 00:08:45,15.08840133,0.0001491,53.2173,1.3639,107.7364,252.3791,0.001155,0.00018142,0.0,0 STARLINK-4677,1 53600U 22104N   23096.00607999  .00018142  00000-0  11550-2 0  9993,2 53600  53.2173   1.3639 0001491 107.7364 252.3791 15.08840133 34281,6917.88,95.438,540.776,538.714,0.0
53600.0,STARLINK-4677,PAYLOAD,2023-04-07 03:10:18,15.08846364,0.0001239,53.2173,356.3096,99.389,260.7242,0.00028922,4.319e-05,0.0,0 STARLINK-4677,1 53600U 22104N   23097.13216047  .00004319  00000-0  28922-3 0  9991,2 53600  53.2173 356.3096 0001239  99.3890 260.7242 15.08846364 34175,6917.861,95.437,540.583,538.869,0.0
53600.0,STARLINK-4677,PAYLOAD,2023-04-08 03:01:05,15.08848532,0.0001248,53.2176,351.8489,91.4092,268.7043,0.00025696,3.805e-05,0.0,0 STARLINK-4677,1 53600U 22104N   23098.12575931  .00003805  00000-0  25696-3 0  9995,2 53600  53.2176 351.8489 0001248  91.4092 268.7043 15.08848532 34324,6917.854,95.437,540.583,538.856,0.0
53600.0,STARLINK-4677,PAYLOAD,2023-04-08 17:19:34,15.0883768,0.0001215,53.2174,349.1728,95.6655,264.4475,7.2986e-06,-1.72e-06,0.0,0 STARLINK-4677,1 53600U 22104N   23098.72192525 -.00000172  00000-0  72986-5 0  9996,2 53600  53.2174 349.1728 0001215  95.6655 264.4475 15.08837680 34417,6917.887,95.438,540.593,538.912,0.0
53600.0,STARLINK-4677,PAYLOAD,2023-04-08 23:41:06,15.0884609,0.000125,53.2172,347.9836,93.6355,266.478,0.00011985,1.62e-05,0.0,0 STARLINK-4677,1 53600U 22104N   23098.98688057  .00001620  00000-0  11985-3 0  9992,2 53600  53.2172 347.9836 0001250  93.6355 266.4780 15.08846090 34455,6917.862,95.437,540.592,538.862,0.0
53600.0,STARLINK-4677,PAYLOAD,2023-04-09 15:34:58,15.08834052,0.0001173,53.2164,345.0102,91.3417,268.7709,-5.83e-06,-3.81e-06,0.0,0 STARLINK-4677,1 53600U 22104N   23099.64928748 -.00000381  00000-0 -58300-5 0  9999,2 53600  53.2164 345.0102 0001173  91.3417 268.7709 15.08834052 34551,6917.899,95.438,540.575,538.952,0.0
53600.0,STARLINK-4677,PAYLOAD,2023-04-10 02:42:39,15.08848832,0.0001205,53.2179,342.9292,92.6036,267.5094,8.9598e-05,1.139e-05,0.0,0 STARLINK-4677,1 53600U 22104N   23100.11296226  .00001139  00000-0  89598-4 0  9995,2 53600  53.2179 342.9292 0001205  92.6036 267.5094 15.08848832 34623,6917.853,95.437,540.552,538.885,0.0
53600.0,STARLINK-4677,PAYLOAD,2023-04-11 00:58:03,15.08842757,0.0001266,53.2174,338.7647,92.5598,267.5539,6.8774e-05,8.07e-06,0.0,0 STARLINK-4677,1 53600U 22104N   23101.04032400  .00000807  00000-0  68774-4 0  9994,2 53600  53.2174 338.7647 0001266  92.5598 267.5539 15.08842757 35045,6917.872,95.437,540.613,538.861,0.0
53600.0,STARLINK-4677,PAYLOAD,2023-04-11 21:38:05,15.0883414,0.0001186,53.2174,334.897,95.0166,265.0962,-5.0509e-05,-1.091e-05,0.0,0 STARLINK-4677,1 53600U 22104N   23101.90145082 -.00001091  00000-0 -50509-4 0  9995,2 53600  53.2174 334.8970 0001186  95.0166 265.0962 15.08834140 35175,6917.898,95.438,540.584,538.943,0.0
53600.0,STARLINK-4677,PAYLOAD,2023-04-12 00:48:51,15.08838068,0.0001206,53.218,334.3028,100.1495,259.9633,3.7103e-05,3.03e-06,0.0,0 STARLINK-4677,1 53600U 22104N   23102.03393149  .00000303  00000-0  37103-4 0  9997,2 53600  53.2180 334.3028 0001206 100.1495 259.9633 15.08838068 34918,6917.886,95.438,540.586,538.917,0.0
53600.0,STARLINK-4677,PAYLOAD,2023-04-12 23:04:15,15.08842564,0.0001245,53.2183,330.1404,84.7029,275.4105,5.9711e-06,-1.93e-06,0.0,0 STARLINK-4677,1 53600U 22104N   23102.96129028 -.00000193  00000-0  59711-5 0  9990,2 53600  53.2183 330.1404 0001245  84.7029 275.4105 15.08842564 35336,6917.873,95.437,540.599,538.876,0.0
53600.0,STARLINK-4677,PAYLOAD,2023-04-14 05:16:34,15.0885157,0.0001197,53.2175,324.4911,85.6774,274.4355,0.00012097,1.638e-05,0.0,0 STARLINK-4677,1 53600U 22104N   23104.21984087  .00001638  00000-0  12097-3 0  9992,2 53600  53.2175 324.4911 0001197  85.6774 274.4355 15.08851570 35523,6917.845,95.437,540.538,538.882,0.0
53600.0,STARLINK-4677,PAYLOAD,2023-04-14 14:48:54,15.08833351,0.0001208,53.2177,322.707,86.3953,273.7177,-4.7362e-05,-1.041e-05,0.0,0 STARLINK-4677,1 53600U 22104N   23104.61729878 -.00001041  00000-0 -47362-4 0  9995,2 53600  53.2177 322.7070 0001208  86.3953 273.7177 15.08833351 35309,6917.901,95.438,540.601,538.93,0.0
53600.0,STARLINK-4677,PAYLOAD,2023-04-14 22:45:49,15.08844513,0.0001271,53.2173,321.2204,86.9869,273.1268,4.9403e-05,4.99e-06,0.0,0 STARLINK-4677,1 53600U 22104N   23104.94848948  .00000499  00000-0  49403-4 0  9993,2 53600  53.2173 321.2204 0001271  86.9869 273.1268 15.08844513 35352,6917.867,95.437,540.611,538.852,0.0
53600.0,STARLINK-4677,PAYLOAD,2023-04-15 00:21:12,15.08845488,0.0001257,53.2172,320.9224,87.2685,272.8451,5.6622e-05,6.14e-06,0.0,0 STARLINK-4677,1 53600U 22104N   23105.01472851  .00000614  00000-0  56622-4 0  9998,2 53600  53.2172 320.9224 0001257  87.2685 272.8451 15.08845488 35647,6917.864,95.437,540.598,538.859,0.0
53600.0,STARLINK-4677,PAYLOAD,2023-04-15 21:01:13,15.08847294,0.0001241,53.2148,317.0574,92.7265,267.3869,9.3173e-05,1.196e-05,0.0,0 STARLINK-4677,1 53600U 22104N   23105.87584587  .00001196  00000-0  93173-4 0  9990,2 53600  53.2148 317.0574 0001241  92.7265 267.3869 15.08847294 35776,6917.858,95.437,540.582,538.865,0.0
53600.0,STARLINK-4677,PAYLOAD,2023-04-16 00:11:59,15.08852221,0.0001269,53.2159,316.4621,94.348,265.7657,0.00016743,2.379e-05,0.0,0 STARLINK-4677,1 53600U 22104N   23106.00832344  .00002379  00000-0  16743-3 0  9994,2 53600  53.2159 316.4621 0001269  94.3480 265.7657 15.08852221 35796,6917.843,95.437,540.586,538.83,0.0
53600.0,STARLINK-4677,PAYLOAD,2023-04-16 20:52:00,15.08838515,0.0001205,53.2157,312.5962,88.4035,271.7095,6.8025e-05,7.95e-06,0.0,0 STARLINK-4677,1 53600U 22104N   23106.86945255  .00000795  00000-0  68025-4 0  9995,2 53600  53.2157 312.5962 0001205  88.4035 271.7095 15.08838515 35646,6917.885,95.438,540.584,538.916,0.0
53600.0,STARLINK-4677,PAYLOAD,2023-04-17 14:21:16,15.08822567,0.0001427,53.2164,309.3248,86.3916,273.7239,-0.00022221,-3.821e-05,0.0,0 STARLINK-4677,1 53600U 22104N   23107.59810757 -.00003821  00000-0 -22221-3 0  9996,2 53600  53.2164 309.3248 0001427  86.3916 273.7239 15.08822567 36032,6917.934,95.439,540.786,538.811,0.0
53600.0,STARLINK-4677,PAYLOAD,2023-04-17 19:07:26,15.08816577,0.0001104,53.2159,308.4329,104.0763,256.0352,-0.00026448,-4.492e-05,0.0,0 STARLINK-4677,1 53600U 22104N   23107.79683213 -.00004492  00000-0 -26448-3 0  9993,2 53600  53.2159 308.4329 0001104 104.0763 256.0352 15.08816577 35781,6917.952,95.439,540.581,539.053,0.0
53600.0,STARLINK-4677,PAYLOAD,2023-04-17 20:42:49,15.08812589,0.0001218,53.2168,308.1371,90.629,269.4842,-0.0002602,-4.423e-05,0.0,0 STARLINK-4677,1 53600U 22104N   23107.86307658 -.00004423  00000-0 -26020-3 0  9997,2 53600  53.2168 308.1371 0001218  90.6290 269.4842 15.08812589 36070,6917.964,95.439,540.672,538.987,0.0
53600.0,STARLINK-4677,PAYLOAD,2023-04-18 06:15:07,15.0884104,0.0001101,53.2161,306.3517,94.4368,265.675,0.00013113,1.8e-05,0.0,0 STARLINK-4677,1 53600U 22104N   23108.26050352  .00001800  00000-0  13113-3 0  9991,2 53600  53.2161 306.3517 0001101  94.4368 265.6750 15.08841040 35859,6917.877,95.437,540.504,538.981,0.0
53600.0,STARLINK-4677,PAYLOAD,2023-04-18 17:22:49,15.08852333,8.57e-05,53.2157,304.2694,86.8051,273.3039,0.00037572,5.699e-05,0.0,0 STARLINK-4677,1 53600U 22104N   23108.72417825  .00005699  00000-0  37572-3 0  9999,2 53600  53.2157 304.2694 0000857  86.8051 273.3039 15.08852333 36201,6917.843,95.437,540.301,539.115,0.0
53600.0,STARLINK-4677,PAYLOAD,2023-04-19 06:05:54,15.08852027,0.0001423,53.2163,301.8913,72.2356,287.8791,0.00043755,6.685e-05,0.0,0 STARLINK-4677,1 53600U 22104N   23109.25410118  .00006685  00000-0  43755-3 0  9992,2 53600  53.2163 301.8913 0001423  72.2356 287.8791 15.08852027 36285,6917.844,95.437,540.693,538.724,0.0
53600.0,STARLINK-4677,PAYLOAD,2023-04-19 18:48:59,15.08843766,0.0001219,53.216,299.5124,74.3825,285.7302,0.0003706,5.616e-05,0.0,0 STARLINK-4677,1 53600U 22104N   23109.78402475  .00005616  00000-0  37060-3 0  9992,2 53600  53.2160 299.5124 0001219  74.3825 285.7302 15.08843766 36360,6917.869,95.437,540.577,538.891,0.0
53600.0,STARLINK-4677,PAYLOAD,2023-04-20 05:56:40,15.08850213,0.0001138,53.2154,297.4306,73.869,286.2427,8.5939e-05,1.081e-05,0.0,0 STARLINK-4677,1 53600U 22104N   23110.24769634  .00001081  00000-0  85939-4 0  9999,2 53600  53.2154 297.4306 0001138  73.8690 286.2427 15.08850213 36152,6917.849,95.437,540.501,538.927,0.0
53600.0,STARLINK-4677,PAYLOAD,2023-04-20 18:39:46,15.08843842,0.0001288,53.2159,295.0514,73.2554,286.8579,-5.6927e-05,-1.194e-05,0.0,0 STARLINK-4677,1 53600U 22104N   23110.77761687 -.00001194  00000-0 -56927-4 0  9999,2 53600  53.2159 295.0514 0001288  73.2554 286.8579 15.08843842 36515,6917.869,95.437,540.625,538.843,0.0
53600.0,STARLINK-4677,PAYLOAD,2023-04-21 05:47:27,15.0885043,0.0001263,53.2159,292.9697,77.3269,282.7864,-2.3612e-05,-6.64e-06,0.0,0 STARLINK-4677,1 53600U 22104N   23111.24129320 -.00000664  00000-0 -23612-4 0  9990,2 53600  53.2159 292.9697 0001263  77.3269 282.7864 15.08850430 36584,6917.849,95.437,540.587,538.84,0.0
53600.0,STARLINK-4677,PAYLOAD,2023-04-21 21:41:19,15.08846666,0.0001396,53.2158,289.9952,72.8784,287.2361,0.00013196,1.813e-05,0.0,0 STARLINK-4677,1 53600U 22104N   23111.90369497  .00001813  00000-0  13196-3 0  9994,2 53600  53.2158 289.9952 0001396  72.8784 287.2361 15.08846666 36681,6917.86,95.437,540.691,538.759,0.0
